0 DELTA 1 DEB
1 09042U 75004DG  13280.53982708  .00000105  00000-0  45274-4 0  6143
2 09042 097.9062 134.9700 0064805 119.6097 299.6461 14.39173509972760
0 DELTA 1 DEB
1 09042U 75004DG  13282.69185966  .00000126  00000-0  51892-4 0  6150
2 09042 097.9059 136.9557 0064837 113.2000 289.2496 14.39174602973070
0 DELTA 1 DEB
1 09042U 75004DG  13285.47729368  .00000153  00000-0  60533-4 0  6162
2 09042 097.9052 139.5256 0064870 104.9028 320.4978 14.39175716973476
0 DELTA 1 DEB
1 09042U 75004DG  13287.49310591  .00000182  00000-0  69557-4 0  6178
2 09042 097.9047 141.3854 0064845 098.9167 324.3471 14.39176628973769
0 DELTA 1 DEB
1 09042U 75004DG  13289.57083418  .00000198  00000-0  74614-4 0  6182
2 09042 097.9044 143.3022 0064831 092.7422 288.9934 14.39178103974069
0 DELTA 1 DEB
1 09042U 75004DG  13292.16755706  .00000200  00000-0  75280-4 0  6192
2 09042 097.9042 145.6976 0064798 085.0005 062.5741 14.39179345974436
0 DELTA 1 DEB
1 09042U 75004DG  13294.17672218  .00000207  00000-0  77440-4 0  6200
2 09042 097.9040 147.5510 0064743 079.0209 032.0250 14.39180496974726
